{"type":"Topology","objects":{"station_points":{"type":"GeometryCollection","geometries":[{"type":"Point","coordinates":[-71.075,42.3675],"properties":{"feature_type":"station_point","stop_id":"stop_002","stop_name":"stop_002","route_id":"Orange","line_color":"#ED8B00","stop_sequence":12.0,"is_transfer_station":false}},{"type":"Point","coordinates":[-71.087,42.3825],"properties":{"feature_type":"station_point","stop_id":"stop_004","stop_name":"stop_004","route_id":"Orange","line_color":"#ED8B00","stop_sequence":14.0,"is_transfer_station":false}},{"type":"Point","coordinates":[-71.069,42.36],"properties":{"feature_type":"station_point","stop_id":"stop_006","stop_name":"stop_006","route_id":"Orange","line_color":"#ED8B00","stop_sequence":11.0,"is_transfer_station":false}},{"type":"Point","coordinates":[-71.081,42.375],"properties":{"feature_type":"station_point","stop_id":"stop_008","stop_name":"stop_008","route_id":"Orange","line_color":"#ED8B00","stop_sequence":13.0,"is_transfer_station":false}},{"type":"Point","coordinates":[-71.093,42.39],"properties":{"feature_type":"station_point","stop_id":"stop_010","stop_name":"stop_010","route_id":"Orange","line_color":"#ED8B00","stop_sequence":15.0,"is_transfer_station":false}},{"type":"Point","coordinates":[-71.077,42.37],"properties":{"feature_type":"station_point","stop_id":"stop_012","stop_name":"stop_012","route_id":"Orange","line_color":"#ED8B00","stop_sequence":12.0,"is_transfer_station":false}},{"type":"Point","coordinates":[-71.089,42.385],"properties":{"feature_type":"station_point","stop_id":"stop_014","stop_name":"stop_014","route_id":"Orange","line_color":"#ED8B00","stop_sequence":14.0,"is_transfer_station":false}},{"type":"Point","coordinates":[-71.071,42.3625],"properties":{"feature_type":"station_point","stop_id":"stop_016","stop_name":"stop_016","route_id":"Orange","line_color":"#ED8B00","stop_sequence":11.0,"is_transfer_station":false}},{"type":"Point","coordinates":[-71.083,42.3775],"properties":{"feature_type":"station_point","stop_id":"stop_018","stop_name":"stop_018","route_id":"Orange","line_color":"#ED8B00","stop_sequence":13.0,"is_transfer_station":false}},{"type":"Point","coordinates":[-71.095,42.3925],"properties":{"feature_type":"station_point","stop_id":"stop_020","stop_name":"stop_020","route_id":"Orange","line_color":"#ED8B00","stop_sequence":15.0,"is_transfer_station":false}},{"type":"Point","coordinates":[-71.07900000000001,42.3725],"properties":{"feature_type":"station_point","stop_id":"stop_022","stop_name":"stop_022","route_id":"Orange","line_color":"#ED8B00","stop_sequence":12.0,"is_transfer_station":false}},{"type":"Point","coordinates":[-71.09100000000001,42.3875],"properties":{"feature_type":"station_point","stop_id":"stop_024","stop_name":"stop_024","route_id":"Orange","line_color":"#ED8B00","stop_sequence":14.0,"is_transfer_station":false}},{"type":"Point","coordinates":[-71.07300000000001,42.365],"properties":{"feature_type":"station_point","stop_id":"stop_026","stop_name":"stop_026","route_id":"Orange","line_color":"#ED8B00","stop_sequence":11.0,"is_transfer_station":false}},{"type":"Point","coordinates":[-71.08500000000001,42.38],"properties":{"feature_type":"station_point","stop_id":"stop_028","stop_name":"stop_028","route_id":"Orange","line_color":"#ED8B00","stop_sequence":13.0,"is_transfer_station":false}},{"type":"Point","coordinates":[-71.09700000000001,42.394999999999996],"properties":{"feature_type":"station_point","stop_id":"stop_030","stop_name":"stop_030","route_id":"Orange","line_color":"#ED8B00","stop_sequence":15.0,"is_transfer_station":false}},{"type":"Point","coordinates":[-71.062,42.352],"properties":{"feature_type":"station_point","stop_id":"stop_001","stop_name":"stop_001","route_id":"Red","line_color":"#DA291C","stop_sequence":11.0,"is_transfer_station":false}},{"type":"Point","coordinates":[-71.074,42.367],"properties":{"feature_type":"station_point","stop_id":"stop_003","stop_name":"stop_003","route_id":"Red","line_color":"#DA291C","stop_sequence":13.0,"is_transfer_station":false}},{"type":"Point","coordinates":[-71.086,42.382],"properties":{"feature_type":"station_point","stop_id":"stop_005","stop_name":"stop_005","route_id":"Red","line_color":"#DA291C","stop_sequence":15.0,"is_transfer_station":false}},{"type":"Point","coordinates":[-71.068,42.3595],"properties":{"feature_type":"station_point","stop_id":"stop_007","stop_name":"stop_007","route_id":"Red","line_color":"#DA291C","stop_sequence":12.0,"is_transfer_station":false}},{"type":"Point","coordinates":[-71.08,42.3745],"properties":{"feature_type":"station_point","stop_id":"stop_009","stop_name":"stop_009","route_id":"Red","line_color":"#DA291C","stop_sequence":14.0,"is_transfer_station":false}},{"type":"Point","coordinates":[-71.064,42.354499999999994],"properties":{"feature_type":"station_point","stop_id":"stop_011","stop_name":"stop_011","route_id":"Red","line_color":"#DA291C","stop_sequence":11.0,"is_transfer_station":false}},{"type":"Point","coordinates":[-71.076,42.369499999999995],"properties":{"feature_type":"station_point","stop_id":"stop_013","stop_name":"stop_013","route_id":"Red","line_color":"#DA291C","stop_sequence":13.0,"is_transfer_station":false}},{"type":"Point","coordinates":[-71.088,42.384499999999996],"properties":{"feature_type":"station_point","stop_id":"stop_015","stop_name":"stop_015","route_id":"Red","line_color":"#DA291C","stop_sequence":15.0,"is_transfer_station":false}},{"type":"Point","coordinates":[-71.07,42.361999999999995],"properties":{"feature_type":"station_point","stop_id":"stop_017","stop_name":"stop_017","route_id":"Red","line_color":"#DA291C","stop_sequence":12.0,"is_transfer_station":false}},{"type":"Point","coordinates":[-71.082,42.376999999999995],"properties":{"feature_type":"station_point","stop_id":"stop_019","stop_name":"stop_019","route_id":"Red","line_color":"#DA291C","stop_sequence":14.0,"is_transfer_station":false}},{"type":"Point","coordinates":[-71.066,42.357],"properties":{"feature_type":"station_point","stop_id":"stop_021","stop_name":"stop_021","route_id":"Red","line_color":"#DA291C","stop_sequence":11.0,"is_transfer_station":false}},{"type":"Point","coordinates":[-71.078,42.372],"properties":{"feature_type":"station_point","stop_id":"stop_023","stop_name":"stop_023","route_id":"Red","line_color":"#DA291C","stop_sequence":13.0,"is_transfer_station":false}},{"type":"Point","coordinates":[-71.09,42.38699999999999],"properties":{"feature_type":"station_point","stop_id":"stop_025","stop_name":"stop_025","route_id":"Red","line_color":"#DA291C","stop_sequence":15.0,"is_transfer_station":false}},{"type":"Point","coordinates":[-71.072,42.3645],"properties":{"feature_type":"station_point","stop_id":"stop_027","stop_name":"stop_027","route_id":"Red","line_color":"#DA291C","stop_sequence":12.0,"is_transfer_station":false}},{"type":"Point","coordinates":[-71.084,42.3795],"properties":{"feature_type":"station_point","stop_id":"stop_029","stop_name":"stop_029","route_id":"Red","line_color":"#DA291C","stop_sequence":14.0,"is_transfer_station":false}}]},"line_paths":{"type":"GeometryCollection","geometries":[{"type":"LineString","arcs":[0],"properties":{"feature_type":"line_path","route_id":"Orange","line_color":"#ED8B00","geometry_source":"derived_stop_sequence"}},{"type":"LineString","arcs":[1],"properties":{"feature_type":"line_path","route_id":"Red","line_color":"#DA291C","geometry_source":"derived_stop_sequence"}}]}},"arcs":[[[-71.069,42.36],[-71.071,42.3625],[-71.07300000000001,42.365],[-71.075,42.3675],[-71.077,42.37],[-71.07900000000001,42.3725],[-71.081,42.375],[-71.083,42.3775],[-71.08500000000001,42.38],[-71.087,42.3825],[-71.089,42.385],[-71.09100000000001,42.3875],[-71.093,42.39],[-71.095,42.3925],[-71.09700000000001,42.394999999999996]],[[-71.062,42.352],[-71.064,42.354499999999994],[-71.066,42.357],[-71.068,42.3595],[-71.07,42.361999999999995],[-71.072,42.3645],[-71.074,42.367],[-71.076,42.369499999999995],[-71.078,42.372],[-71.08,42.3745],[-71.082,42.376999999999995],[-71.084,42.3795],[-71.086,42.382],[-71.088,42.384499999999996],[-71.09,42.38699999999999]]],"bbox":[-71.09700000000001,42.352,-71.062,42.394999999999996]}